{"type":"Feature","properties":{"dataset":"Natural Earth 1:10m land","source_url":"https://naciscdn.org/naturalearth/10m/physical/ne_10m_land.zip","archive_sha256":"e547d749445eaa0964aba76738090ec88f5e63c4585122170f98c67a7ea922dc","requested_bbox":[104.02,1.2,104.23,1.31],"padding_degrees":0.15,"license":"Natural Earth public domain"},"geometry":{"type":"MultiPolygon","coordinates":[[[[104.18612714900007,1.0677757830000587],[104.18303470100005,1.0622012390000464],[104.19134679555492,1.05],[104.16376490535067,1.05],[104.16545657600005,1.0554059920000896],[104.16537519600007,1.060980536000045],[104.17774498800003,1.0665550800000574],[104.18612714900007,1.0677757830000587]]],[[[104.25635826900003,1.1088727890000882],[104.30518639400003,1.1264509140000882],[104.31657962300005,1.1328799500000741],[104.32227623800003,1.1386579450000909],[104.33253014400003,1.1544457050000574],[104.33676191500007,1.1650251320000393],[104.33725019600007,1.1737328150000508],[104.34131920700003,1.1795921900000508],[104.35629316500007,1.1817080750000741],[104.37842858200003,1.1764997420000896],[104.38000000000001,1.176810507422652],[104.38000000000001,1.05],[104.24213575171831,1.05],[104.24244225400008,1.0558942730000922],[104.23275800900007,1.0755882830000587],[104.23194420700003,1.0933291690000715],[104.25635826900003,1.1088727890000882]]],[[[104.12280297478765,1.05],[104.10596764400003,1.0650088560000768],[104.10417728000004,1.057766018000052],[104.10417728000004,1.051662502000056],[104.10485540567439,1.05],[103.91938368203253,1.05],[103.91822350400008,1.0513369810000768],[103.90674889400003,1.0716820330000587],[103.90259850400008,1.090521552000041],[103.91407311300003,1.099798895000049],[103.92383873800003,1.096136786000045],[103.93816165500004,1.0795759140000882],[103.94898522200003,1.0785993510000935],[103.95622806100005,1.084865627000056],[103.95533287900008,1.093573309000078],[103.95134524800005,1.1035830750000741],[103.94654381600003,1.1247012390000464],[103.94320722700007,1.1309268250000741],[103.94450931100005,1.1352399760000935],[103.95582116000003,1.1407738300000574],[103.96705162900008,1.1416690120000794],[103.98764082100007,1.1342227230000503],[103.99610436300003,1.1332868510000935],[104.01107832100007,1.144720770000049],[104.01921634200005,1.178859768000052],[104.03093509200005,1.1878929710000534],[104.04135175900007,1.181382554000038],[104.07081139400003,1.1459414730000503],[104.08545983200003,1.1332868510000935],[104.09164472700007,1.1454938820000393],[104.09156334700003,1.1584333350000406],[104.08659915500004,1.1709658870000794],[104.07862389400003,1.1817080750000741],[104.09058678500003,1.1878115910000702],[104.10320071700005,1.1895205750000741],[104.11573326900003,1.187241929000038],[104.12769616000003,1.1813011740000547],[104.13819420700003,1.1720238300000574],[104.14275149800005,1.1664899760000935],[104.14633222700007,1.1604678410000702],[104.15235436300003,1.1400414080000587],[104.15170332100007,1.1194522160000702],[104.13147141538354,1.05],[104.12280297478765,1.05]]],[[[103.87842858200003,1.1452904320000812],[103.88266035200007,1.1529401710000684],[103.88762454500005,1.1531029320000812],[103.88957767000005,1.1579043640000464],[103.89210045700003,1.143906968000067],[103.88835696700005,1.1426455750000741],[103.87842858200003,1.1452904320000812]]],[[[103.87183678500003,1.1592471370000794],[103.86999999999999,1.1570276884975341],[103.86999999999999,1.1600149735618104],[103.87183678500003,1.1592471370000794]]],[[[103.99187259200005,1.3549258480000503],[103.97486412900008,1.3344587260000935],[103.95435631600003,1.318101304000038],[103.93189537900008,1.3114688170000477],[103.90723717500003,1.3087425800000574],[103.88770592500003,1.3012556010000935],[103.86999999999999,1.2891291011805759],[103.86999999999999,1.4323078717852955],[103.93246504000007,1.4011091170000896],[103.96078535200007,1.3910993510000935],[103.98568769600007,1.385443427000041],[103.99952233200003,1.3803164730000503],[104.00342858200003,1.374172268000052],[103.99187259200005,1.3549258480000503]]],[[[104.28239993600005,1.382635809000078],[104.27735436300003,1.3673363300000574],[104.23959394600007,1.3673363300000574],[104.23462975400008,1.3639997420000896],[104.22413170700003,1.3495140650000508],[104.21924889400003,1.3461774760000935],[104.17408287900008,1.3482119810000768],[104.15447024800005,1.3522809920000896],[104.11402428500003,1.3684756530000755],[104.10621178500003,1.375189520000049],[104.10523522200003,1.38540273600006],[104.10596764400003,1.404486395000049],[104.10059655000003,1.418850002000056],[104.08863366000003,1.429429429000038],[104.07488040500004,1.4387067730000922],[104.06495201900003,1.4486351580000587],[104.06323847303143,1.46],[104.29416312413558,1.46],[104.29468834700003,1.4465192730000922],[104.28785241000003,1.4355329450000909],[104.27955162900008,1.426459052000041],[104.28239993600005,1.382635809000078]]],[[[103.87173756253017,1.46],[104.01172957030968,1.46],[104.00977623800003,1.4486351580000587],[103.97445722700007,1.4198265650000508],[103.92652428500003,1.4317080750000741],[103.87173756253017,1.46]]]]}}