{
  "type": "FeatureCollection",
  "features": [
    {
      "type": "Feature",
      "properties": {
        "name": "Illustrative origin uncertainty",
        "exercise_geometry": true
      },
      "geometry": {
        "type": "Polygon",
        "coordinates": [
          [
            [
              57.7579037,
              -20.4418957
            ],
            [
              57.7575905,
              -20.4443492
            ],
            [
              57.7566631,
              -20.4467085
            ],
            [
              57.755157,
              -20.4488828
            ],
            [
              57.7531302,
              -20.4507885
            ],
            [
              57.7506605,
              -20.4523526
            ],
            [
              57.7478429,
              -20.4535147
            ],
            [
              57.7447856,
              -20.4542304
            ],
            [
              57.7416061,
              -20.4544721
            ],
            [
              57.7384266,
              -20.4542304
            ],
            [
              57.7353692,
              -20.4535147
            ],
            [
              57.7325516,
              -20.4523526
            ],
            [
              57.7300819,
              -20.4507885
            ],
            [
              57.7280551,
              -20.4488828
            ],
            [
              57.726549,
              -20.4467085
            ],
            [
              57.7256216,
              -20.4443492
            ],
            [
              57.7253085,
              -20.4418957
            ],
            [
              57.7256216,
              -20.4394422
            ],
            [
              57.726549,
              -20.4370829
            ],
            [
              57.7280551,
              -20.4349087
            ],
            [
              57.7300819,
              -20.4330029
            ],
            [
              57.7325516,
              -20.4314388
            ],
            [
              57.7353692,
              -20.4302767
            ],
            [
              57.7384266,
              -20.429561
            ],
            [
              57.7416061,
              -20.4293193
            ],
            [
              57.7447856,
              -20.429561
            ],
            [
              57.7478429,
              -20.4302767
            ],
            [
              57.7506605,
              -20.4314388
            ],
            [
              57.7531302,
              -20.4330029
            ],
            [
              57.755157,
              -20.4349087
            ],
            [
              57.7566631,
              -20.4370829
            ],
            [
              57.7575905,
              -20.4394422
            ],
            [
              57.7579037,
              -20.4418957
            ]
          ]
        ]
      }
    }
  ]
}
