{
  "type": "FeatureCollection",
  "features": [
    {
      "type": "Feature",
      "properties": {
        "name": "Illustrative slick interpretation",
        "exercise_geometry": true
      },
      "geometry": {
        "type": "Polygon",
        "coordinates": [
          [
            [
              57.735375,
              -20.4329126
            ],
            [
              57.7351263,
              -20.4338765
            ],
            [
              57.7343899,
              -20.4348033
            ],
            [
              57.733194,
              -20.4356575
            ],
            [
              57.7315845,
              -20.4364062
            ],
            [
              57.7296234,
              -20.4370206
            ],
            [
              57.727386,
              -20.4374772
            ],
            [
              57.7249583,
              -20.4377584
            ],
            [
              57.7224335,
              -20.4378533
            ],
            [
              57.7199088,
              -20.4377584
            ],
            [
              57.717481,
              -20.4374772
            ],
            [
              57.7152436,
              -20.4370206
            ],
            [
              57.7132825,
              -20.4364062
            ],
            [
              57.7116731,
              -20.4356575
            ],
            [
              57.7104772,
              -20.4348033
            ],
            [
              57.7097407,
              -20.4338765
            ],
            [
              57.7094921,
              -20.4329126
            ],
            [
              57.7097407,
              -20.4319487
            ],
            [
              57.7104772,
              -20.4310219
            ],
            [
              57.7116731,
              -20.4301677
            ],
            [
              57.7132825,
              -20.429419
            ],
            [
              57.7152436,
              -20.4288045
            ],
            [
              57.717481,
              -20.428348
            ],
            [
              57.7199088,
              -20.4280668
            ],
            [
              57.7224335,
              -20.4279719
            ],
            [
              57.7249583,
              -20.4280668
            ],
            [
              57.727386,
              -20.428348
            ],
            [
              57.7296234,
              -20.4288045
            ],
            [
              57.7315845,
              -20.429419
            ],
            [
              57.733194,
              -20.4301677
            ],
            [
              57.7343899,
              -20.4310219
            ],
            [
              57.7351263,
              -20.4319487
            ],
            [
              57.735375,
              -20.4329126
            ]
          ]
        ]
      }
    }
  ]
}
