{
  "type": "FeatureCollection",
  "features": [
    {
      "type": "Feature",
      "properties": {
        "observation_time_utc": "2026-09-15T11:24:45Z",
        "detection_confidence": 0.4268184006214142,
        "source": "Local source artifact: sentinel1_vv.tif",
        "segmentation_method": "calibrated V6 SAR semantic segmentation",
        "review_status": "analyst_approved",
        "reviewed_at_utc": "2026-09-28T20:15:25Z",
        "assumed_age_hours": 19.0
      },
      "geometry": {
        "type": "Polygon",
        "coordinates": [
          [
            [
              104.07480938416423,
              1.203564245810056
            ],
            [
              104.07460410557185,
              1.2036871508379887
            ],
            [
              104.07439882697948,
              1.2038100558659217
            ],
            [
              104.0741935483871,
              1.2041787709497207
            ],
            [
              104.0741935483871,
              1.2044245810055865
            ],
            [
              104.07439882697948,
              1.2058994413407822
            ],
            [
              104.07460410557185,
              1.206145251396648
            ],
            [
              104.07521994134898,
              1.20663687150838
            ],
            [
              104.07788856304985,
              1.2086033519553072
            ],
            [
              104.0782991202346,
              1.2088491620111732
            ],
            [
              104.0791202346041,
              1.2088491620111732
            ],
            [
              104.08014662756598,
              1.2086033519553072
            ],
            [
              104.0807624633431,
              1.2082346368715084
            ],
            [
              104.0807624633431,
              1.2078659217877095
            ],
            [
              104.08055718475073,
              1.2074972067039105
            ],
            [
              104.0758357771261,
              1.2039329608938547
            ],
            [
              104.07542521994135,
              1.2036871508379887
            ],
            [
              104.07521994134898,
              1.203564245810056
            ],
            [
              104.07480938416423,
              1.203564245810056
            ]
          ]
        ]
      }
    }
  ]
}
