{
  "type": "FeatureCollection",
  "features": [
    {
      "type": "Feature",
      "properties": {
        "mmsi": "352978276",
        "vessel_name": "UNKNOWN",
        "rank": 10,
        "total_score": 0.2848221984772071
      },
      "geometry": {
        "type": "LineString",
        "coordinates": [
          [
            104.18000030517578,
            1.12
          ],
          [
            104.18000030517578,
            1.12
          ],
          [
            104.18000030517578,
            1.12
          ],
          [
            104.18000030517578,
            1.12
          ],
          [
            104.18000030517578,
            1.12
          ],
          [
            104.18000030517578,
            1.12
          ],
          [
            104.18000030517578,
            1.12
          ],
          [
            104.18000030517578,
            1.12
          ],
          [
            104.18000030517578,
            1.12
          ],
          [
            104.18000030517578,
            1.12
          ],
          [
            104.18000030517578,
            1.12
          ],
          [
            104.18000030517578,
            1.12
          ],
          [
            104.18000030517578,
            1.12
          ],
          [
            104.18000030517578,
            1.12
          ],
          [
            104.18000030517578,
            1.12
          ],
          [
            104.18000030517578,
            1.12
          ],
          [
            104.18000030517578,
            1.12
          ],
          [
            104.18000030517578,
            1.12
          ],
          [
            104.18000030517578,
            1.12
          ],
          [
            104.18000030517578,
            1.12
          ],
          [
            104.18000030517578,
            1.12
          ],
          [
            104.18000030517578,
            1.12
          ]
        ]
      }
    },
    {
      "type": "Feature",
      "properties": {
        "mmsi": "357591000",
        "vessel_name": "UNKNOWN",
        "rank": 32,
        "total_score": 0.1997220538310578
      },
      "geometry": {
        "type": "LineString",
        "coordinates": [
          [
            104.16999816894533,
            1.1
          ],
          [
            104.16999816894533,
            1.1
          ],
          [
            104.16999816894533,
            1.1
          ],
          [
            104.16999816894533,
            1.1
          ],
          [
            104.16999816894533,
            1.1
          ],
          [
            104.16999816894533,
            1.1
          ],
          [
            104.16999816894533,
            1.1
          ],
          [
            104.16999816894533,
            1.1
          ],
          [
            104.16999816894533,
            1.1
          ],
          [
            104.16999816894533,
            1.1
          ],
          [
            104.16999816894533,
            1.1
          ],
          [
            104.16999816894533,
            1.1
          ],
          [
            104.16999816894533,
            1.1
          ],
          [
            104.16999816894533,
            1.1
          ],
          [
            104.16999816894533,
            1.1
          ],
          [
            104.16999816894533,
            1.1
          ],
          [
            104.16999816894533,
            1.1
          ],
          [
            104.16999816894533,
            1.1
          ],
          [
            104.16999816894533,
            1.1
          ],
          [
            104.16999816894533,
            1.1
          ],
          [
            104.16999816894533,
            1.1
          ],
          [
            104.1500015258789,
            1.11
          ]
        ]
      }
    },
    {
      "type": "Feature",
      "properties": {
        "mmsi": "412438950",
        "vessel_name": "UNKNOWN",
        "rank": 5,
        "total_score": 0.364866499635433
      },
      "geometry": {
        "type": "LineString",
        "coordinates": [
          [
            104.19000244140624,
            1.13
          ],
          [
            104.19000244140624,
            1.13
          ],
          [
            104.19000244140624,
            1.13
          ],
          [
            104.19000244140624,
            1.13
          ],
          [
            104.19000244140624,
            1.13
          ],
          [
            104.19000244140624,
            1.13
          ],
          [
            104.19000244140624,
            1.14
          ],
          [
            104.19000244140624,
            1.14
          ],
          [
            104.19000244140624,
            1.14
          ],
          [
            104.19000244140624,
            1.14
          ],
          [
            104.19000244140624,
            1.14
          ],
          [
            104.19000244140624,
            1.14
          ],
          [
            104.19000244140624,
            1.14
          ],
          [
            104.19000244140624,
            1.14
          ],
          [
            104.19000244140624,
            1.13
          ],
          [
            104.19000244140624,
            1.13
          ],
          [
            104.19000244140624,
            1.14
          ],
          [
            104.19000244140624,
            1.14
          ],
          [
            104.19000244140624,
            1.14
          ],
          [
            104.19000244140624,
            1.14
          ],
          [
            104.19000244140624,
            1.14
          ],
          [
            104.19000244140624,
            1.14
          ]
        ]
      }
    },
    {
      "type": "Feature",
      "properties": {
        "mmsi": "525001015",
        "vessel_name": "UNKNOWN",
        "rank": 14,
        "total_score": 0.2723229492668326
      },
      "geometry": {
        "type": "LineString",
        "coordinates": [
          [
            104.22000122070312,
            1.06
          ],
          [
            104.22000122070312,
            1.06
          ],
          [
            104.22000122070312,
            1.06
          ],
          [
            104.22000122070312,
            1.06
          ],
          [
            104.22000122070312,
            1.06
          ],
          [
            104.22000122070312,
            1.06
          ],
          [
            104.22000122070312,
            1.06
          ],
          [
            104.22000122070312,
            1.06
          ],
          [
            104.22000122070312,
            1.06
          ],
          [
            104.22000122070312,
            1.06
          ],
          [
            104.22000122070312,
            1.06
          ],
          [
            104.22000122070312,
            1.06
          ],
          [
            104.22000122070312,
            1.06
          ],
          [
            104.22000122070312,
            1.06
          ],
          [
            104.22000122070312,
            1.06
          ],
          [
            104.22000122070312,
            1.06
          ],
          [
            104.22000122070312,
            1.06
          ],
          [
            104.22000122070312,
            1.06
          ],
          [
            104.22000122070312,
            1.06
          ],
          [
            104.22000122070312,
            1.06
          ],
          [
            104.22000122070312,
            1.06
          ],
          [
            104.22000122070312,
            1.06
          ]
        ]
      }
    },
    {
      "type": "Feature",
      "properties": {
        "mmsi": "525001070",
        "vessel_name": "UNKNOWN",
        "rank": 15,
        "total_score": 0.2723229492668326
      },
      "geometry": {
        "type": "LineString",
        "coordinates": [
          [
            104.22000122070312,
            1.06
          ],
          [
            104.22000122070312,
            1.06
          ],
          [
            104.22000122070312,
            1.06
          ],
          [
            104.22000122070312,
            1.06
          ],
          [
            104.22000122070312,
            1.06
          ],
          [
            104.22000122070312,
            1.06
          ],
          [
            104.22000122070312,
            1.06
          ],
          [
            104.22000122070312,
            1.06
          ],
          [
            104.22000122070312,
            1.06
          ],
          [
            104.22000122070312,
            1.06
          ],
          [
            104.22000122070312,
            1.06
          ],
          [
            104.22000122070312,
            1.06
          ],
          [
            104.22000122070312,
            1.06
          ],
          [
            104.22000122070312,
            1.06
          ],
          [
            104.22000122070312,
            1.06
          ],
          [
            104.22000122070312,
            1.06
          ],
          [
            104.22000122070312,
            1.06
          ],
          [
            104.22000122070312,
            1.06
          ],
          [
            104.22000122070312,
            1.06
          ],
          [
            104.22000122070312,
            1.06
          ],
          [
            104.22000122070312,
            1.06
          ],
          [
            104.22000122070312,
            1.06
          ]
        ]
      }
    },
    {
      "type": "Feature",
      "properties": {
        "mmsi": "525010142",
        "vessel_name": "UNKNOWN",
        "rank": 18,
        "total_score": 0.2609834963870386
      },
      "geometry": {
        "type": "LineString",
        "coordinates": [
          [
            104.11000061035156,
            1.22
          ],
          [
            104.12999725341795,
            1.22
          ],
          [
            104.16999816894533,
            1.21
          ],
          [
            104.1999969482422,
            1.19
          ],
          [
            104.20999908447266,
            1.16
          ],
          [
            104.20999908447266,
            1.13
          ],
          [
            104.1999969482422,
            1.08
          ],
          [
            104.1999969482422,
            1.05
          ],
          [
            104.20999908447266,
            1.03
          ],
          [
            104.20999908447266,
            0.99
          ],
          [
            104.20999908447266,
            0.96
          ]
        ]
      }
    },
    {
      "type": "Feature",
      "properties": {
        "mmsi": "525010388",
        "vessel_name": "UNKNOWN",
        "rank": 40,
        "total_score": 0.13550908386550464
      },
      "geometry": {
        "type": "LineString",
        "coordinates": [
          [
            104.19000244140624,
            1.06
          ],
          [
            104.19000244140624,
            1.06
          ],
          [
            104.19000244140624,
            1.06
          ],
          [
            104.19000244140624,
            1.06
          ],
          [
            104.19000244140624,
            1.06
          ],
          [
            104.19000244140624,
            1.06
          ],
          [
            104.19000244140624,
            1.06
          ],
          [
            104.19000244140624,
            1.06
          ],
          [
            104.19000244140624,
            1.06
          ],
          [
            104.19000244140624,
            1.06
          ],
          [
            104.19000244140624,
            1.06
          ],
          [
            104.19000244140624,
            1.06
          ],
          [
            104.19000244140624,
            1.06
          ],
          [
            104.19000244140624,
            1.06
          ],
          [
            104.19000244140624,
            1.06
          ],
          [
            104.19000244140624,
            1.06
          ],
          [
            104.19000244140624,
            1.06
          ],
          [
            104.19000244140624,
            1.06
          ],
          [
            104.19000244140624,
            1.06
          ],
          [
            104.19000244140624,
            1.06
          ],
          [
            104.19000244140624,
            1.06
          ]
        ]
      }
    },
    {
      "type": "Feature",
      "properties": {
        "mmsi": "525012114",
        "vessel_name": "UNKNOWN",
        "rank": 37,
        "total_score": 0.1437364102764141
      },
      "geometry": {
        "type": "LineString",
        "coordinates": [
          [
            104.19000244140624,
            1.06
          ],
          [
            104.19000244140624,
            1.06
          ],
          [
            104.19000244140624,
            1.06
          ],
          [
            104.19000244140624,
            1.06
          ],
          [
            104.19000244140624,
            1.06
          ],
          [
            104.19000244140624,
            1.06
          ],
          [
            104.19000244140624,
            1.06
          ],
          [
            104.19000244140624,
            1.06
          ],
          [
            104.19000244140624,
            1.06
          ],
          [
            104.19000244140624,
            1.06
          ],
          [
            104.19000244140624,
            1.06
          ],
          [
            104.19000244140624,
            1.06
          ],
          [
            104.19000244140624,
            1.06
          ],
          [
            104.19000244140624,
            1.06
          ],
          [
            104.19000244140624,
            1.06
          ],
          [
            104.19000244140624,
            1.06
          ],
          [
            104.19000244140624,
            1.06
          ],
          [
            104.19000244140624,
            1.06
          ],
          [
            104.19000244140624,
            1.06
          ],
          [
            104.19000244140624,
            1.06
          ],
          [
            104.19000244140624,
            1.06
          ],
          [
            104.19000244140624,
            1.06
          ]
        ]
      }
    },
    {
      "type": "Feature",
      "properties": {
        "mmsi": "525018427",
        "vessel_name": "UNKNOWN",
        "rank": 6,
        "total_score": 0.33382965894149425
      },
      "geometry": {
        "type": "LineString",
        "coordinates": [
          [
            104.19000244140624,
            1.13
          ],
          [
            104.19000244140624,
            1.12
          ],
          [
            104.19000244140624,
            1.12
          ],
          [
            104.19000244140624,
            1.12
          ],
          [
            104.19000244140624,
            1.12
          ],
          [
            104.19000244140624,
            1.12
          ],
          [
            104.19000244140624,
            1.13
          ],
          [
            104.19000244140624,
            1.13
          ],
          [
            104.19000244140624,
            1.13
          ],
          [
            104.19000244140624,
            1.13
          ],
          [
            104.19000244140624,
            1.13
          ],
          [
            104.19000244140624,
            1.13
          ],
          [
            104.19000244140624,
            1.13
          ],
          [
            104.19000244140624,
            1.12
          ],
          [
            104.19000244140624,
            1.12
          ],
          [
            104.19000244140624,
            1.12
          ],
          [
            104.19000244140624,
            1.13
          ],
          [
            104.19000244140624,
            1.13
          ],
          [
            104.19000244140624,
            1.13
          ],
          [
            104.19000244140624,
            1.13
          ],
          [
            104.19000244140624,
            1.13
          ],
          [
            104.19000244140624,
            1.13
          ]
        ]
      }
    },
    {
      "type": "Feature",
      "properties": {
        "mmsi": "525019417",
        "vessel_name": "UNKNOWN",
        "rank": 34,
        "total_score": 0.18234657995249948
      },
      "geometry": {
        "type": "LineString",
        "coordinates": [
          [
            104.20999908447266,
            0.99
          ],
          [
            104.1999969482422,
            1.09
          ],
          [
            104.1999969482422,
            1.18
          ],
          [
            104.1500015258789,
            1.21
          ]
        ]
      }
    },
    {
      "type": "Feature",
      "properties": {
        "mmsi": "525019679",
        "vessel_name": "UNKNOWN",
        "rank": 8,
        "total_score": 0.302746455499125
      },
      "geometry": {
        "type": "LineString",
        "coordinates": [
          [
            104.19000244140624,
            1.12
          ],
          [
            104.19000244140624,
            1.11
          ],
          [
            104.1999969482422,
            1.09
          ],
          [
            104.20999908447266,
            1.08
          ],
          [
            104.20999908447266,
            1.08
          ],
          [
            104.20999908447266,
            1.08
          ],
          [
            104.20999908447266,
            1.08
          ],
          [
            104.20999908447266,
            1.08
          ],
          [
            104.20999908447266,
            1.08
          ],
          [
            104.20999908447266,
            1.08
          ],
          [
            104.20999908447266,
            1.08
          ],
          [
            104.20999908447266,
            1.08
          ],
          [
            104.20999908447266,
            1.08
          ],
          [
            104.20999908447266,
            1.08
          ],
          [
            104.20999908447266,
            1.08
          ],
          [
            104.20999908447266,
            1.08
          ],
          [
            104.20999908447266,
            1.08
          ],
          [
            104.20999908447266,
            1.08
          ],
          [
            104.20999908447266,
            1.08
          ],
          [
            104.20999908447266,
            1.08
          ],
          [
            104.20999908447266,
            1.08
          ],
          [
            104.20999908447266,
            1.08
          ]
        ]
      }
    },
    {
      "type": "Feature",
      "properties": {
        "mmsi": "525021455",
        "vessel_name": "UNKNOWN",
        "rank": 1,
        "total_score": 0.4098501490928019
      },
      "geometry": {
        "type": "LineString",
        "coordinates": [
          [
            104.1999969482422,
            1.07
          ],
          [
            104.20999908447266,
            1.06
          ],
          [
            104.20999908447266,
            1.07
          ],
          [
            104.20999908447266,
            1.07
          ],
          [
            104.20999908447266,
            1.07
          ],
          [
            104.20999908447266,
            1.07
          ],
          [
            104.20999908447266,
            1.07
          ],
          [
            104.20999908447266,
            1.07
          ],
          [
            104.20999908447266,
            1.07
          ],
          [
            104.20999908447266,
            1.07
          ],
          [
            104.20999908447266,
            1.07
          ],
          [
            104.20999908447266,
            1.07
          ],
          [
            104.1999969482422,
            1.08
          ],
          [
            104.19000244140624,
            1.11
          ],
          [
            104.16999816894533,
            1.18
          ],
          [
            104.12999725341795,
            1.2
          ],
          [
            104.12999725341795,
            1.2
          ]
        ]
      }
    },
    {
      "type": "Feature",
      "properties": {
        "mmsi": "525022219",
        "vessel_name": "UNKNOWN",
        "rank": 28,
        "total_score": 0.21855486595691578
      },
      "geometry": {
        "type": "LineString",
        "coordinates": [
          [
            104.16999816894533,
            1.14
          ],
          [
            104.16000366210938,
            1.19
          ]
        ]
      }
    },
    {
      "type": "Feature",
      "properties": {
        "mmsi": "525100960",
        "vessel_name": "UNKNOWN",
        "rank": 23,
        "total_score": 0.2503680321074267
      },
      "geometry": {
        "type": "LineString",
        "coordinates": [
          [
            104.22000122070312,
            1.06
          ],
          [
            104.20999908447266,
            1.06
          ],
          [
            104.1999969482422,
            1.08
          ],
          [
            104.20999908447266,
            1.08
          ],
          [
            104.22000122070312,
            1.06
          ],
          [
            104.22000122070312,
            1.06
          ],
          [
            104.22000122070312,
            1.06
          ],
          [
            104.22000122070312,
            1.06
          ],
          [
            104.22000122070312,
            1.06
          ],
          [
            104.22000122070312,
            1.06
          ],
          [
            104.22000122070312,
            1.06
          ],
          [
            104.20999908447266,
            1.07
          ],
          [
            104.20999908447266,
            1.07
          ],
          [
            104.22000122070312,
            1.05
          ],
          [
            104.20999908447266,
            1.06
          ],
          [
            104.22000122070312,
            1.05
          ],
          [
            104.22000122070312,
            1.05
          ],
          [
            104.22000122070312,
            1.05
          ],
          [
            104.22000122070312,
            1.06
          ],
          [
            104.22000122070312,
            1.06
          ],
          [
            104.20999908447266,
            1.06
          ]
        ]
      }
    },
    {
      "type": "Feature",
      "properties": {
        "mmsi": "525100984",
        "vessel_name": "UNKNOWN",
        "rank": 39,
        "total_score": 0.1389159155198797
      },
      "geometry": {
        "type": "LineString",
        "coordinates": [
          [
            104.18000030517578,
            1.06
          ],
          [
            104.19000244140624,
            1.06
          ],
          [
            104.19000244140624,
            1.06
          ],
          [
            104.19000244140624,
            1.06
          ],
          [
            104.19000244140624,
            1.06
          ],
          [
            104.19000244140624,
            1.06
          ],
          [
            104.19000244140624,
            1.06
          ],
          [
            104.19000244140624,
            1.06
          ],
          [
            104.19000244140624,
            1.06
          ],
          [
            104.19000244140624,
            1.06
          ],
          [
            104.19000244140624,
            1.06
          ],
          [
            104.19000244140624,
            1.06
          ],
          [
            104.19000244140624,
            1.06
          ],
          [
            104.19000244140624,
            1.06
          ],
          [
            104.19000244140624,
            1.06
          ],
          [
            104.19000244140624,
            1.06
          ],
          [
            104.19000244140624,
            1.06
          ],
          [
            104.19000244140624,
            1.06
          ],
          [
            104.19000244140624,
            1.06
          ],
          [
            104.19000244140624,
            1.06
          ]
        ]
      }
    },
    {
      "type": "Feature",
      "properties": {
        "mmsi": "525103010",
        "vessel_name": "UNKNOWN",
        "rank": 7,
        "total_score": 0.30768171534743
      },
      "geometry": {
        "type": "LineString",
        "coordinates": [
          [
            104.18000030517578,
            1.13
          ],
          [
            104.18000030517578,
            1.13
          ],
          [
            104.18000030517578,
            1.13
          ],
          [
            104.18000030517578,
            1.13
          ],
          [
            104.18000030517578,
            1.13
          ],
          [
            104.18000030517578,
            1.13
          ],
          [
            104.18000030517578,
            1.13
          ],
          [
            104.19000244140624,
            1.13
          ],
          [
            104.19000244140624,
            1.13
          ],
          [
            104.18000030517578,
            1.13
          ],
          [
            104.18000030517578,
            1.13
          ],
          [
            104.18000030517578,
            1.13
          ],
          [
            104.18000030517578,
            1.13
          ],
          [
            104.18000030517578,
            1.13
          ],
          [
            104.18000030517578,
            1.13
          ],
          [
            104.18000030517578,
            1.13
          ],
          [
            104.18000030517578,
            1.13
          ],
          [
            104.18000030517578,
            1.13
          ],
          [
            104.18000030517578,
            1.13
          ],
          [
            104.19000244140624,
            1.13
          ],
          [
            104.19000244140624,
            1.13
          ],
          [
            104.18000030517578,
            1.13
          ]
        ]
      }
    },
    {
      "type": "Feature",
      "properties": {
        "mmsi": "525104079",
        "vessel_name": "UNKNOWN",
        "rank": 9,
        "total_score": 0.2910030462703577
      },
      "geometry": {
        "type": "LineString",
        "coordinates": [
          [
            104.20999908447266,
            1.06
          ],
          [
            104.20999908447266,
            1.07
          ],
          [
            104.1999969482422,
            1.09
          ],
          [
            104.20999908447266,
            1.08
          ],
          [
            104.20999908447266,
            1.06
          ],
          [
            104.22000122070312,
            1.06
          ],
          [
            104.22000122070312,
            1.06
          ],
          [
            104.22000122070312,
            1.06
          ],
          [
            104.22000122070312,
            1.06
          ],
          [
            104.22000122070312,
            1.06
          ],
          [
            104.22000122070312,
            1.06
          ],
          [
            104.22000122070312,
            1.06
          ],
          [
            104.22000122070312,
            1.06
          ],
          [
            104.22000122070312,
            1.06
          ],
          [
            104.22000122070312,
            1.05
          ],
          [
            104.22000122070312,
            1.06
          ],
          [
            104.22000122070312,
            1.06
          ],
          [
            104.22000122070312,
            1.06
          ],
          [
            104.22000122070312,
            1.06
          ],
          [
            104.22000122070312,
            1.06
          ],
          [
            104.22000122070312,
            1.06
          ],
          [
            104.20999908447266,
            1.06
          ]
        ]
      }
    },
    {
      "type": "Feature",
      "properties": {
        "mmsi": "525110418",
        "vessel_name": "UNKNOWN",
        "rank": 16,
        "total_score": 0.27099468761770606
      },
      "geometry": {
        "type": "LineString",
        "coordinates": [
          [
            104.1999969482422,
            1.07
          ],
          [
            104.20999908447266,
            1.07
          ],
          [
            104.20999908447266,
            1.07
          ],
          [
            104.20999908447266,
            1.07
          ],
          [
            104.20999908447266,
            1.07
          ],
          [
            104.20999908447266,
            1.07
          ],
          [
            104.20999908447266,
            1.07
          ],
          [
            104.20999908447266,
            1.07
          ],
          [
            104.20999908447266,
            1.07
          ],
          [
            104.20999908447266,
            1.07
          ],
          [
            104.20999908447266,
            1.07
          ],
          [
            104.20999908447266,
            1.07
          ],
          [
            104.20999908447266,
            1.07
          ],
          [
            104.20999908447266,
            1.07
          ],
          [
            104.20999908447266,
            1.07
          ],
          [
            104.20999908447266,
            1.07
          ],
          [
            104.20999908447266,
            1.07
          ],
          [
            104.20999908447266,
            1.07
          ],
          [
            104.20999908447266,
            1.07
          ],
          [
            104.20999908447266,
            1.07
          ],
          [
            104.20999908447266,
            1.07
          ],
          [
            104.20999908447266,
            1.07
          ]
        ]
      }
    },
    {
      "type": "Feature",
      "properties": {
        "mmsi": "525110774",
        "vessel_name": "UNKNOWN",
        "rank": 21,
        "total_score": 0.25580390426389615
      },
      "geometry": {
        "type": "LineString",
        "coordinates": [
          [
            104.41999816894533,
            1.3
          ],
          [
            104.3000030517578,
            1.24
          ],
          [
            104.19000244140624,
            1.23
          ],
          [
            104.1500015258789,
            1.22
          ]
        ]
      }
    },
    {
      "type": "Feature",
      "properties": {
        "mmsi": "525110959",
        "vessel_name": "UNKNOWN",
        "rank": 38,
        "total_score": 0.1437364102764141
      },
      "geometry": {
        "type": "LineString",
        "coordinates": [
          [
            104.19000244140624,
            1.06
          ],
          [
            104.19000244140624,
            1.06
          ],
          [
            104.19000244140624,
            1.06
          ],
          [
            104.19000244140624,
            1.06
          ],
          [
            104.19000244140624,
            1.06
          ],
          [
            104.19000244140624,
            1.06
          ],
          [
            104.19000244140624,
            1.06
          ],
          [
            104.19000244140624,
            1.06
          ],
          [
            104.19000244140624,
            1.06
          ],
          [
            104.19000244140624,
            1.06
          ],
          [
            104.19000244140624,
            1.06
          ],
          [
            104.19000244140624,
            1.06
          ],
          [
            104.19000244140624,
            1.06
          ],
          [
            104.19000244140624,
            1.06
          ],
          [
            104.19000244140624,
            1.06
          ],
          [
            104.19000244140624,
            1.06
          ],
          [
            104.19000244140624,
            1.06
          ],
          [
            104.19000244140624,
            1.06
          ],
          [
            104.19000244140624,
            1.06
          ],
          [
            104.19000244140624,
            1.06
          ],
          [
            104.19000244140624,
            1.06
          ],
          [
            104.19000244140624,
            1.06
          ]
        ]
      }
    },
    {
      "type": "Feature",
      "properties": {
        "mmsi": "525119051",
        "vessel_name": "UNKNOWN",
        "rank": 19,
        "total_score": 0.2609834963870386
      },
      "geometry": {
        "type": "LineString",
        "coordinates": [
          [
            104.11000061035156,
            1.22
          ],
          [
            104.12999725341795,
            1.22
          ],
          [
            104.16000366210938,
            1.21
          ],
          [
            104.19000244140624,
            1.19
          ],
          [
            104.20999908447266,
            1.16
          ],
          [
            104.20999908447266,
            1.13
          ],
          [
            104.1999969482422,
            1.08
          ],
          [
            104.1999969482422,
            1.05
          ],
          [
            104.20999908447266,
            1.03
          ],
          [
            104.20999908447266,
            0.99
          ],
          [
            104.20999908447266,
            0.99
          ]
        ]
      }
    },
    {
      "type": "Feature",
      "properties": {
        "mmsi": "525121006",
        "vessel_name": "UNKNOWN",
        "rank": 2,
        "total_score": 0.40082724150211185
      },
      "geometry": {
        "type": "LineString",
        "coordinates": [
          [
            104.31999969482422,
            1.22
          ],
          [
            104.1999969482422,
            1.09
          ],
          [
            104.22000122070312,
            1.06
          ],
          [
            104.22000122070312,
            1.06
          ],
          [
            104.22000122070312,
            1.06
          ],
          [
            104.22000122070312,
            1.06
          ]
        ]
      }
    },
    {
      "type": "Feature",
      "properties": {
        "mmsi": "525121030",
        "vessel_name": "UNKNOWN",
        "rank": 17,
        "total_score": 0.27099468761770606
      },
      "geometry": {
        "type": "LineString",
        "coordinates": [
          [
            104.20999908447266,
            1.07
          ],
          [
            104.20999908447266,
            1.07
          ],
          [
            104.20999908447266,
            1.07
          ],
          [
            104.20999908447266,
            1.07
          ],
          [
            104.20999908447266,
            1.07
          ],
          [
            104.20999908447266,
            1.07
          ],
          [
            104.20999908447266,
            1.07
          ],
          [
            104.20999908447266,
            1.07
          ],
          [
            104.20999908447266,
            1.07
          ],
          [
            104.20999908447266,
            1.07
          ],
          [
            104.20999908447266,
            1.07
          ],
          [
            104.20999908447266,
            1.07
          ],
          [
            104.20999908447266,
            1.07
          ],
          [
            104.20999908447266,
            1.07
          ],
          [
            104.20999908447266,
            1.07
          ],
          [
            104.20999908447266,
            1.07
          ],
          [
            104.20999908447266,
            1.07
          ],
          [
            104.20999908447266,
            1.07
          ],
          [
            104.20999908447266,
            1.07
          ],
          [
            104.20999908447266,
            1.07
          ],
          [
            104.20999908447266,
            1.07
          ],
          [
            104.20999908447266,
            1.07
          ]
        ]
      }
    },
    {
      "type": "Feature",
      "properties": {
        "mmsi": "525121104",
        "vessel_name": "UNKNOWN",
        "rank": 22,
        "total_score": 0.2535704405626371
      },
      "geometry": {
        "type": "LineString",
        "coordinates": [
          [
            104.20999908447266,
            1.07
          ],
          [
            104.20999908447266,
            1.07
          ],
          [
            104.20999908447266,
            1.07
          ],
          [
            104.20999908447266,
            1.07
          ],
          [
            104.20999908447266,
            1.07
          ],
          [
            104.20999908447266,
            1.07
          ],
          [
            104.20999908447266,
            1.07
          ],
          [
            104.20999908447266,
            1.07
          ],
          [
            104.20999908447266,
            1.07
          ],
          [
            104.20999908447266,
            1.07
          ],
          [
            104.20999908447266,
            1.07
          ],
          [
            104.20999908447266,
            1.07
          ],
          [
            104.20999908447266,
            1.07
          ],
          [
            104.12000274658205,
            1.22
          ]
        ]
      }
    },
    {
      "type": "Feature",
      "properties": {
        "mmsi": "525121110",
        "vessel_name": "UNKNOWN",
        "rank": 29,
        "total_score": 0.21214505852246934
      },
      "geometry": {
        "type": "LineString",
        "coordinates": [
          [
            104.18000030517578,
            1.1
          ],
          [
            104.18000030517578,
            1.09
          ],
          [
            104.18000030517578,
            1.09
          ],
          [
            104.18000030517578,
            1.09
          ],
          [
            104.18000030517578,
            1.09
          ],
          [
            104.18000030517578,
            1.09
          ],
          [
            104.18000030517578,
            1.1
          ],
          [
            104.18000030517578,
            1.1
          ],
          [
            104.18000030517578,
            1.1
          ],
          [
            104.18000030517578,
            1.1
          ],
          [
            104.18000030517578,
            1.1
          ],
          [
            104.18000030517578,
            1.1
          ],
          [
            104.18000030517578,
            1.1
          ],
          [
            104.18000030517578,
            1.1
          ],
          [
            104.18000030517578,
            1.1
          ],
          [
            104.18000030517578,
            1.09
          ],
          [
            104.18000030517578,
            1.1
          ],
          [
            104.18000030517578,
            1.1
          ],
          [
            104.18000030517578,
            1.1
          ],
          [
            104.18000030517578,
            1.1
          ],
          [
            104.18000030517578,
            1.1
          ],
          [
            104.18000030517578,
            1.1
          ]
        ]
      }
    },
    {
      "type": "Feature",
      "properties": {
        "mmsi": "525200182",
        "vessel_name": "UNKNOWN",
        "rank": 35,
        "total_score": 0.1677034445508228
      },
      "geometry": {
        "type": "LineString",
        "coordinates": [
          [
            104.22000122070312,
            1.05
          ],
          [
            104.22000122070312,
            1.05
          ],
          [
            104.22000122070312,
            1.05
          ],
          [
            104.22000122070312,
            1.05
          ],
          [
            104.22000122070312,
            1.05
          ],
          [
            104.22000122070312,
            1.05
          ],
          [
            104.22000122070312,
            1.05
          ],
          [
            104.22000122070312,
            1.05
          ],
          [
            104.22000122070312,
            1.05
          ],
          [
            104.22000122070312,
            1.05
          ],
          [
            104.22000122070312,
            1.05
          ],
          [
            104.22000122070312,
            1.05
          ],
          [
            104.20999908447266,
            1.06
          ]
        ]
      }
    },
    {
      "type": "Feature",
      "properties": {
        "mmsi": "525300484",
        "vessel_name": "UNKNOWN",
        "rank": 12,
        "total_score": 0.2804567644650848
      },
      "geometry": {
        "type": "LineString",
        "coordinates": [
          [
            104.19000244140624,
            1.1
          ],
          [
            104.19000244140624,
            1.1
          ],
          [
            104.19000244140624,
            1.1
          ],
          [
            104.19000244140624,
            1.1
          ],
          [
            104.19000244140624,
            1.1
          ],
          [
            104.19000244140624,
            1.1
          ],
          [
            104.19000244140624,
            1.1
          ],
          [
            104.19000244140624,
            1.1
          ],
          [
            104.19000244140624,
            1.1
          ],
          [
            104.19000244140624,
            1.1
          ],
          [
            104.19000244140624,
            1.1
          ],
          [
            104.19000244140624,
            1.1
          ],
          [
            104.19000244140624,
            1.1
          ],
          [
            104.19000244140624,
            1.1
          ],
          [
            104.19000244140624,
            1.1
          ],
          [
            104.19000244140624,
            1.1
          ],
          [
            104.19000244140624,
            1.1
          ],
          [
            104.19000244140624,
            1.1
          ],
          [
            104.19000244140624,
            1.1
          ],
          [
            104.19000244140624,
            1.1
          ],
          [
            104.19000244140624,
            1.1
          ],
          [
            104.19000244140624,
            1.1
          ]
        ]
      }
    },
    {
      "type": "Feature",
      "properties": {
        "mmsi": "525301746",
        "vessel_name": "UNKNOWN",
        "rank": 4,
        "total_score": 0.38947646003281056
      },
      "geometry": {
        "type": "LineString",
        "coordinates": [
          [
            104.18000030517578,
            1.12
          ],
          [
            104.13999938964844,
            1.19
          ],
          [
            104.12999725341795,
            1.2
          ],
          [
            104.16000366210938,
            1.19
          ],
          [
            104.1999969482422,
            1.08
          ],
          [
            104.22000122070312,
            1.05
          ],
          [
            104.22000122070312,
            1.05
          ],
          [
            104.22000122070312,
            1.05
          ],
          [
            104.22000122070312,
            1.06
          ]
        ]
      }
    },
    {
      "type": "Feature",
      "properties": {
        "mmsi": "525400301",
        "vessel_name": "UNKNOWN",
        "rank": 11,
        "total_score": 0.2848221984772071
      },
      "geometry": {
        "type": "LineString",
        "coordinates": [
          [
            104.18000030517578,
            1.12
          ],
          [
            104.18000030517578,
            1.12
          ],
          [
            104.18000030517578,
            1.12
          ],
          [
            104.18000030517578,
            1.12
          ],
          [
            104.18000030517578,
            1.12
          ],
          [
            104.18000030517578,
            1.12
          ],
          [
            104.18000030517578,
            1.12
          ],
          [
            104.18000030517578,
            1.12
          ],
          [
            104.18000030517578,
            1.12
          ],
          [
            104.18000030517578,
            1.12
          ],
          [
            104.18000030517578,
            1.12
          ],
          [
            104.18000030517578,
            1.12
          ],
          [
            104.18000030517578,
            1.12
          ],
          [
            104.18000030517578,
            1.12
          ],
          [
            104.18000030517578,
            1.12
          ],
          [
            104.18000030517578,
            1.12
          ],
          [
            104.18000030517578,
            1.12
          ],
          [
            104.18000030517578,
            1.12
          ],
          [
            104.18000030517578,
            1.12
          ],
          [
            104.18000030517578,
            1.12
          ],
          [
            104.18000030517578,
            1.12
          ],
          [
            104.18000030517578,
            1.12
          ]
        ]
      }
    },
    {
      "type": "Feature",
      "properties": {
        "mmsi": "525500348",
        "vessel_name": "UNKNOWN",
        "rank": 33,
        "total_score": 0.19744848428721218
      },
      "geometry": {
        "type": "LineString",
        "coordinates": [
          [
            104.22000122070312,
            1.05
          ],
          [
            104.22000122070312,
            1.05
          ],
          [
            104.22000122070312,
            1.05
          ],
          [
            104.22000122070312,
            1.05
          ],
          [
            104.22000122070312,
            1.05
          ],
          [
            104.22000122070312,
            1.06
          ],
          [
            104.22000122070312,
            1.06
          ],
          [
            104.22000122070312,
            1.06
          ],
          [
            104.22000122070312,
            1.06
          ],
          [
            104.22000122070312,
            1.06
          ],
          [
            104.22000122070312,
            1.06
          ],
          [
            104.20999908447266,
            1.06
          ],
          [
            104.20999908447266,
            1.07
          ],
          [
            104.19000244140624,
            1.06
          ],
          [
            104.19000244140624,
            1.06
          ],
          [
            104.19000244140624,
            1.06
          ],
          [
            104.19000244140624,
            1.06
          ],
          [
            104.1999969482422,
            1.06
          ],
          [
            104.22000122070312,
            1.06
          ],
          [
            104.22000122070312,
            1.06
          ],
          [
            104.22000122070312,
            1.06
          ],
          [
            104.22000122070312,
            1.06
          ]
        ]
      }
    },
    {
      "type": "Feature",
      "properties": {
        "mmsi": "525501574",
        "vessel_name": "UNKNOWN",
        "rank": 24,
        "total_score": 0.24435816648731684
      },
      "geometry": {
        "type": "LineString",
        "coordinates": [
          [
            104.20999908447266,
            1.07
          ],
          [
            104.20999908447266,
            1.07
          ],
          [
            104.20999908447266,
            1.07
          ],
          [
            104.20999908447266,
            1.07
          ],
          [
            104.20999908447266,
            1.07
          ],
          [
            104.20999908447266,
            1.07
          ],
          [
            104.20999908447266,
            1.07
          ],
          [
            104.20999908447266,
            1.07
          ],
          [
            104.20999908447266,
            1.07
          ],
          [
            104.20999908447266,
            1.07
          ],
          [
            104.20999908447266,
            1.06
          ],
          [
            104.20999908447266,
            1.0
          ],
          [
            104.20999908447266,
            0.98
          ]
        ]
      }
    },
    {
      "type": "Feature",
      "properties": {
        "mmsi": "525701296",
        "vessel_name": "UNKNOWN",
        "rank": 20,
        "total_score": 0.2609610092309213
      },
      "geometry": {
        "type": "LineString",
        "coordinates": [
          [
            104.38999938964844,
            1.25
          ],
          [
            104.2699966430664,
            1.23
          ],
          [
            104.1500015258789,
            1.23
          ]
        ]
      }
    },
    {
      "type": "Feature",
      "properties": {
        "mmsi": "525701793",
        "vessel_name": "UNKNOWN",
        "rank": 3,
        "total_score": 0.3989239397445846
      },
      "geometry": {
        "type": "LineString",
        "coordinates": [
          [
            104.1999969482422,
            1.19
          ],
          [
            104.1999969482422,
            1.19
          ],
          [
            104.1999969482422,
            1.19
          ],
          [
            104.1999969482422,
            1.19
          ],
          [
            104.1999969482422,
            1.19
          ],
          [
            104.1999969482422,
            1.19
          ],
          [
            104.1999969482422,
            1.19
          ],
          [
            104.1999969482422,
            1.19
          ],
          [
            104.1999969482422,
            1.19
          ],
          [
            104.1999969482422,
            1.19
          ],
          [
            104.1999969482422,
            1.19
          ],
          [
            104.1999969482422,
            1.19
          ],
          [
            104.1999969482422,
            1.19
          ],
          [
            104.1999969482422,
            1.19
          ],
          [
            104.1999969482422,
            1.19
          ],
          [
            104.1999969482422,
            1.19
          ],
          [
            104.1999969482422,
            1.19
          ],
          [
            104.1999969482422,
            1.19
          ],
          [
            104.1999969482422,
            1.19
          ],
          [
            104.1999969482422,
            1.19
          ],
          [
            104.1999969482422,
            1.19
          ],
          [
            104.1999969482422,
            1.19
          ]
        ]
      }
    },
    {
      "type": "Feature",
      "properties": {
        "mmsi": "525801719",
        "vessel_name": "UNKNOWN",
        "rank": 36,
        "total_score": 0.15238465302584547
      },
      "geometry": {
        "type": "LineString",
        "coordinates": [
          [
            104.1500015258789,
            1.07
          ],
          [
            104.18000030517578,
            1.08
          ],
          [
            104.1999969482422,
            0.99
          ]
        ]
      }
    },
    {
      "type": "Feature",
      "properties": {
        "mmsi": "525801822",
        "vessel_name": "UNKNOWN",
        "rank": 13,
        "total_score": 0.2767974493870037
      },
      "geometry": {
        "type": "LineString",
        "coordinates": [
          [
            104.1500015258789,
            1.1
          ],
          [
            104.16000366210938,
            1.1
          ],
          [
            104.16999816894533,
            1.13
          ],
          [
            104.16999816894533,
            1.16
          ],
          [
            104.16999816894533,
            1.19
          ],
          [
            104.16000366210938,
            1.21
          ]
        ]
      }
    },
    {
      "type": "Feature",
      "properties": {
        "mmsi": "525901595",
        "vessel_name": "UNKNOWN",
        "rank": 30,
        "total_score": 0.21214505852246934
      },
      "geometry": {
        "type": "LineString",
        "coordinates": [
          [
            104.18000030517578,
            1.09
          ],
          [
            104.18000030517578,
            1.09
          ],
          [
            104.18000030517578,
            1.09
          ],
          [
            104.18000030517578,
            1.09
          ],
          [
            104.18000030517578,
            1.09
          ],
          [
            104.18000030517578,
            1.09
          ],
          [
            104.18000030517578,
            1.09
          ],
          [
            104.18000030517578,
            1.09
          ],
          [
            104.18000030517578,
            1.09
          ],
          [
            104.18000030517578,
            1.09
          ],
          [
            104.18000030517578,
            1.09
          ],
          [
            104.18000030517578,
            1.09
          ],
          [
            104.18000030517578,
            1.09
          ],
          [
            104.18000030517578,
            1.09
          ],
          [
            104.18000030517578,
            1.09
          ],
          [
            104.18000030517578,
            1.09
          ],
          [
            104.18000030517578,
            1.09
          ],
          [
            104.18000030517578,
            1.09
          ],
          [
            104.18000030517578,
            1.09
          ],
          [
            104.18000030517578,
            1.09
          ],
          [
            104.18000030517578,
            1.09
          ],
          [
            104.18000030517578,
            1.09
          ]
        ]
      }
    },
    {
      "type": "Feature",
      "properties": {
        "mmsi": "538012154",
        "vessel_name": "UNKNOWN",
        "rank": 25,
        "total_score": 0.23103393491174684
      },
      "geometry": {
        "type": "LineString",
        "coordinates": [
          [
            104.16999816894533,
            1.1
          ],
          [
            104.18000030517578,
            1.1
          ],
          [
            104.18000030517578,
            1.09
          ],
          [
            104.18000030517578,
            1.09
          ],
          [
            104.18000030517578,
            1.09
          ],
          [
            104.18000030517578,
            1.09
          ],
          [
            104.18000030517578,
            1.1
          ],
          [
            104.18000030517578,
            1.1
          ],
          [
            104.18000030517578,
            1.1
          ],
          [
            104.18000030517578,
            1.1
          ],
          [
            104.18000030517578,
            1.1
          ],
          [
            104.16999816894533,
            1.1
          ],
          [
            104.16999816894533,
            1.1
          ],
          [
            104.16999816894533,
            1.1
          ],
          [
            104.18000030517578,
            1.1
          ],
          [
            104.18000030517578,
            1.09
          ],
          [
            104.18000030517578,
            1.1
          ],
          [
            104.16000366210938,
            1.11
          ],
          [
            104.16000366210938,
            1.11
          ],
          [
            104.16000366210938,
            1.11
          ],
          [
            104.16000366210938,
            1.11
          ],
          [
            104.16000366210938,
            1.11
          ]
        ]
      }
    },
    {
      "type": "Feature",
      "properties": {
        "mmsi": "563100400",
        "vessel_name": "UNKNOWN",
        "rank": 31,
        "total_score": 0.20368005656297267
      },
      "geometry": {
        "type": "LineString",
        "coordinates": [
          [
            104.26000213623048,
            1.0
          ],
          [
            104.26000213623048,
            1.0
          ],
          [
            104.1999969482422,
            1.06
          ],
          [
            104.18000030517578,
            1.13
          ],
          [
            104.13999938964844,
            1.21
          ],
          [
            104.18000030517578,
            1.14
          ],
          [
            104.18000030517578,
            1.13
          ],
          [
            104.1999969482422,
            1.07
          ]
        ]
      }
    },
    {
      "type": "Feature",
      "properties": {
        "mmsi": "636022837",
        "vessel_name": "UNKNOWN",
        "rank": 26,
        "total_score": 0.21934318730477864
      },
      "geometry": {
        "type": "LineString",
        "coordinates": [
          [
            104.16999816894533,
            1.11
          ],
          [
            104.16999816894533,
            1.11
          ],
          [
            104.16999816894533,
            1.11
          ],
          [
            104.16999816894533,
            1.11
          ],
          [
            104.16999816894533,
            1.11
          ],
          [
            104.16999816894533,
            1.11
          ],
          [
            104.16999816894533,
            1.11
          ],
          [
            104.16999816894533,
            1.11
          ],
          [
            104.16999816894533,
            1.11
          ],
          [
            104.16999816894533,
            1.11
          ],
          [
            104.16999816894533,
            1.11
          ],
          [
            104.16999816894533,
            1.11
          ],
          [
            104.16999816894533,
            1.11
          ],
          [
            104.16999816894533,
            1.11
          ],
          [
            104.16999816894533,
            1.11
          ],
          [
            104.16999816894533,
            1.11
          ],
          [
            104.16999816894533,
            1.11
          ],
          [
            104.16999816894533,
            1.11
          ],
          [
            104.16999816894533,
            1.11
          ],
          [
            104.16999816894533,
            1.11
          ],
          [
            104.16999816894533,
            1.11
          ],
          [
            104.16999816894533,
            1.11
          ]
        ]
      }
    },
    {
      "type": "Feature",
      "properties": {
        "mmsi": "667002550",
        "vessel_name": "UNKNOWN",
        "rank": 27,
        "total_score": 0.21934318730477864
      },
      "geometry": {
        "type": "LineString",
        "coordinates": [
          [
            104.16999816894533,
            1.11
          ],
          [
            104.16999816894533,
            1.11
          ],
          [
            104.16999816894533,
            1.11
          ],
          [
            104.16999816894533,
            1.11
          ],
          [
            104.16999816894533,
            1.11
          ],
          [
            104.16999816894533,
            1.11
          ],
          [
            104.16999816894533,
            1.11
          ],
          [
            104.16999816894533,
            1.11
          ],
          [
            104.16999816894533,
            1.11
          ],
          [
            104.13999938964844,
            1.07
          ],
          [
            104.13999938964844,
            1.07
          ],
          [
            104.13999938964844,
            1.07
          ],
          [
            104.13999938964844,
            1.07
          ],
          [
            104.13999938964844,
            1.07
          ],
          [
            104.13999938964844,
            1.07
          ],
          [
            104.13999938964844,
            1.07
          ],
          [
            104.13999938964844,
            1.07
          ],
          [
            104.13999938964844,
            1.07
          ],
          [
            104.13999938964844,
            1.07
          ],
          [
            104.13999938964844,
            1.07
          ],
          [
            104.13999938964844,
            1.07
          ],
          [
            104.13999938964844,
            1.07
          ]
        ]
      }
    }
  ]
}
