{
  "type": "FeatureCollection",
  "features": [
    {
      "type": "Feature",
      "properties": {
        "source": "ESPADA reverse particle ensemble",
        "release_time_utc": "2026-09-14T16:24:45Z",
        "credible_radius_90_km": 6.698183709177643
      },
      "geometry": {
        "type": "Polygon",
        "coordinates": [
          [
            [
              104.27852232161227,
              1.0245050964877631
            ],
            [
              104.2573795007099,
              1.0289030708770082
            ],
            [
              104.09068580126497,
              1.191660971393429
            ],
            [
              104.39373438660651,
              1.2329416443038037
            ],
            [
              104.41195455660016,
              1.232104226203463
            ],
            [
              104.4250869037855,
              1.2192550422067643
            ],
            [
              104.43470093686396,
              1.2050119197530769
            ],
            [
              104.27852232161227,
              1.0245050964877631
            ]
          ]
        ]
      }
    }
  ]
}
