{
  "type": "Feature",
  "properties": {
    "dataset": "Natural Earth 1:10m land",
    "source_url": "https://naciscdn.org/naturalearth/10m/physical/ne_10m_land.zip",
    "archive_sha256": "e547d749445eaa0964aba76738090ec88f5e63c4585122170f98c67a7ea922dc",
    "requested_bbox": [
      103.55,
      0.98,
      104.32,
      1.52
    ],
    "padding_degrees": 0.15,
    "license": "Natural Earth public domain"
  },
  "geometry": {
    "type": "MultiPolygon",
    "coordinates": [
      [
        [
          [
            103.66699915159126,
            0.83
          ],
          [
            103.66773522200003,
            0.8396670590000781
          ],
          [
            103.68096382945161,
            0.83
          ],
          [
            103.66699915159126,
            0.83
          ]
        ]
      ],
      [
        [
          [
            103.48853600400008,
            0.845445054000038
          ],
          [
            103.49732506600003,
            0.8402367210000534
          ],
          [
            103.50554446700005,
            0.8339704450000909
          ],
          [
            103.50951491144569,
            0.83
          ],
          [
            103.47887759404911,
            0.83
          ],
          [
            103.47592207100007,
            0.832220770000049
          ],
          [
            103.44027754000007,
            0.8442243510000935
          ],
          [
            103.42579186300003,
            0.8543968770000561
          ],
          [
            103.42123457100007,
            0.873236395000049
          ],
          [
            103.43083743600005,
            0.8676618510000935
          ],
          [
            103.48853600400008,
            0.845445054000038
          ]
        ]
      ],
      [
        [
          [
            103.39999999999999,
            0.83
          ],
          [
            103.39999999999999,
            0.8805806295549717
          ],
          [
            103.40088951900003,
            0.8800723330000437
          ],
          [
            103.41000410200007,
            0.8645694030000755
          ],
          [
            103.41749108200003,
            0.8465029970000728
          ],
          [
            103.42758222700007,
            0.8316104190000715
          ],
          [
            103.43219175964416,
            0.83
          ],
          [
            103.39999999999999,
            0.83
          ]
        ]
      ],
      [
        [
          [
            103.84595787900008,
            0.8424746770000411
          ],
          [
            103.84229576900003,
            0.8506533870000794
          ],
          [
            103.81861412900008,
            0.8800723330000437
          ],
          [
            103.81861412900008,
            0.8862165390000882
          ],
          [
            103.86329186300003,
            0.8768985050000424
          ],
          [
            103.89820397200003,
            0.8533389340000781
          ],
          [
            103.91782220682596,
            0.83
          ],
          [
            103.86277045374422,
            0.83
          ],
          [
            103.85173587300005,
            0.8353539080000587
          ],
          [
            103.84595787900008,
            0.8424746770000411
          ]
        ]
      ],
      [
        [
          [
            103.74341881600003,
            0.8937442080000437
          ],
          [
            103.75025475400008,
            0.888861395000049
          ],
          [
            103.76775149800005,
            0.8843447940000715
          ],
          [
            103.77759850400008,
            0.8800723330000437
          ],
          [
            103.80176842500003,
            0.8527285830000437
          ],
          [
            103.81706790500004,
            0.8417015650000508
          ],
          [
            103.82352912186012,
            0.83
          ],
          [
            103.74170684928762,
            0.83
          ],
          [
            103.73047936300003,
            0.8475609400000508
          ],
          [
            103.72624759200005,
            0.873236395000049
          ],
          [
            103.74341881600003,
            0.8937442080000437
          ]
        ]
      ],
      [
        [
          [
            103.44467207100007,
            0.8736026060000768
          ],
          [
            103.43295332100007,
            0.8806826840000781
          ],
          [
            103.42807050900007,
            0.8900414080000587
          ],
          [
            103.42156009200005,
            0.8967145850000406
          ],
          [
            103.41041100400008,
            0.904730536000045
          ],
          [
            103.40707441500007,
            0.9114444030000755
          ],
          [
            103.45346113400007,
            0.92055898600006
          ],
          [
            103.46216881600003,
            0.9189313820000393
          ],
          [
            103.47266686300003,
            0.90884023600006
          ],
          [
            103.47950280000003,
            0.8936221370000794
          ],
          [
            103.47934004000007,
            0.8788516300000424
          ],
          [
            103.46900475400008,
            0.8696149760000935
          ],
          [
            103.45826256600003,
            0.8696963560000768
          ],
          [
            103.44467207100007,
            0.8736026060000768
          ]
        ]
      ],
      [
        [
          [
            103.78777103000004,
            0.9739444030000755
          ],
          [
            103.78069095100005,
            0.9823265650000508
          ],
          [
            103.77759850400008,
            0.9913190780000605
          ],
          [
            103.77580813900005,
            1.0091820330000587
          ],
          [
            103.77247155000003,
            1.0150414080000587
          ],
          [
            103.76726321700005,
            1.0129662130000838
          ],
          [
            103.76156660200007,
            1.0086123720000728
          ],
          [
            103.75823001400005,
            1.012844143000052
          ],
          [
            103.76083418100006,
            1.0235456400000658
          ],
          [
            103.75936933700007,
            1.0316022810000618
          ],
          [
            103.77385501400005,
            1.0454776060000768
          ],
          [
            103.77442467500003,
            1.051459052000041
          ],
          [
            103.77922610800005,
            1.0514997420000896
          ],
          [
            103.78882897200003,
            1.0468203800000424
          ],
          [
            103.79289798300005,
            1.0490583350000406
          ],
          [
            103.79688561300003,
            1.0462100280000755
          ],
          [
            103.80095462300005,
            1.0317650410000851
          ],
          [
            103.80079186300003,
            1.0195173200000909
          ],
          [
            103.79957116000003,
            1.014553127000056
          ],
          [
            103.80420983200003,
            0.9811872420000896
          ],
          [
            103.80689537900008,
            0.9742699240000547
          ],
          [
            103.80795332100007,
            0.9674746770000411
          ],
          [
            103.80469811300003,
            0.9621442730000922
          ],
          [
            103.80136152400007,
            0.9662132830000587
          ],
          [
            103.79672285200007,
            0.9699160830000437
          ],
          [
            103.78777103000004,
            0.9739444030000755
          ]
        ]
      ],
      [
        [
          [
            103.40756269600007,
            0.9949404970000728
          ],
          [
            103.39999999999999,
            0.9990841298925806
          ],
          [
            103.39999999999999,
            1.0608354775837032
          ],
          [
            103.40398196700005,
            1.0548363300000574
          ],
          [
            103.40967858200003,
            1.0511742210000534
          ],
          [
            103.42269941500007,
            1.049709377000056
          ],
          [
            103.42839603000004,
            1.0471865910000702
          ],
          [
            103.43140709700003,
            1.042710679000038
          ],
          [
            103.43165123800003,
            1.0381533870000794
          ],
          [
            103.43116295700003,
            1.033392645000049
          ],
          [
            103.43189537900008,
            1.0283877620000794
          ],
          [
            103.43425540500004,
            1.0242373720000728
          ],
          [
            103.44060306100005,
            1.0171572940000715
          ],
          [
            103.44312584700003,
            1.0127627620000794
          ],
          [
            103.44483483200003,
            1.0061709660000702
          ],
          [
            103.44483483200003,
            1.0003115910000702
          ],
          [
            103.44223066500007,
            0.9952660180000521
          ],
          [
            103.43702233200003,
            0.9914004580000437
          ],
          [
            103.42359459700003,
            0.9901797550000424
          ],
          [
            103.40756269600007,
            0.9949404970000728
          ]
        ]
      ],
      [
        [
          [
            103.80128014400003,
            1.1099714210000684
          ],
          [
            103.80868574300007,
            1.1027285830000437
          ],
          [
            103.81128991000003,
            1.0990257830000587
          ],
          [
            103.81495201900003,
            1.0990257830000587
          ],
          [
            103.81869550900007,
            1.0934105490000547
          ],
          [
            103.81251061300003,
            1.0853539080000587
          ],
          [
            103.80274498800003,
            1.0886091170000896
          ],
          [
            103.79607181100005,
            1.096828518000052
          ],
          [
            103.80128014400003,
            1.1099714210000684
          ]
        ]
      ],
      [
        [
          [
            103.72006269600007,
            1.1179873720000728
          ],
          [
            103.72022545700003,
            1.1172549500000741
          ],
          [
            103.72063235800005,
            1.1174584010000785
          ],
          [
            103.72095787900008,
            1.1157087260000935
          ],
          [
            103.71973717500003,
            1.115057684000078
          ],
          [
            103.71916751400005,
            1.1155866560000618
          ],
          [
            103.71810957100007,
            1.1170921900000508
          ],
          [
            103.72006269600007,
            1.1179873720000728
          ]
        ]
      ],
      [
        [
          [
            103.40796959700003,
            1.1367048200000909
          ],
          [
            103.39999999999999,
            1.136259816768634
          ],
          [
            103.39999999999999,
            1.1572237966315162
          ],
          [
            103.40609785200007,
            1.1500104840000631
          ],
          [
            103.40796959700003,
            1.1367048200000909
          ]
        ]
      ],
      [
        [
          [
            103.86793053500003,
            1.1545270850000406
          ],
          [
            103.86687259200005,
            1.1613223330000437
          ],
          [
            103.87183678500003,
            1.1592471370000794
          ],
          [
            103.86793053500003,
            1.1545270850000406
          ]
        ]
      ],
      [
        [
          [
            103.41846764400003,
            1.3138695330000587
          ],
          [
            103.41586347700007,
            1.3360049500000741
          ],
          [
            103.42587324300007,
            1.3430850280000755
          ],
          [
            103.43653405000003,
            1.3261172550000424
          ],
          [
            103.43319746200007,
            1.3168806010000935
          ],
          [
            103.42440839900007,
            1.3095970720000878
          ],
          [
            103.42253665500004,
            1.3095970720000878
          ],
          [
            103.41846764400003,
            1.3138695330000587
          ]
        ]
      ],
      [
        [
          [
            103.95435631600003,
            1.318101304000038
          ],
          [
            103.93189537900008,
            1.3114688170000477
          ],
          [
            103.90723717500003,
            1.3087425800000574
          ],
          [
            103.88770592500003,
            1.3012556010000935
          ],
          [
            103.85271243600005,
            1.2772891300000424
          ],
          [
            103.84693444100003,
            1.271918036000045
          ],
          [
            103.84408613400007,
            1.2685000670000477
          ],
          [
            103.83887780000003,
            1.26626211100006
          ],
          [
            103.82601972700007,
            1.26430898600006
          ],
          [
            103.80160566500007,
            1.264797268000052
          ],
          [
            103.78956139400003,
            1.2678897160000702
          ],
          [
            103.78443444100003,
            1.273871161000045
          ],
          [
            103.77588951900003,
            1.2875837260000935
          ],
          [
            103.75513756600003,
            1.2971052100000406
          ],
          [
            103.73015384200005,
            1.302923895000049
          ],
          [
            103.70875084700003,
            1.3052432310000768
          ],
          [
            103.66529381600003,
            1.3041039080000587
          ],
          [
            103.64763431100005,
            1.308417059000078
          ],
          [
            103.64039147200003,
            1.3222516950000909
          ],
          [
            103.64470462300005,
            1.3380394550000574
          ],
          [
            103.67457116000003,
            1.3803164730000503
          ],
          [
            103.67888431100005,
            1.3992373720000728
          ],
          [
            103.68384850400008,
            1.409898179000038
          ],
          [
            103.69507897200003,
            1.4213320980000503
          ],
          [
            103.70834394600007,
            1.4293887390000464
          ],
          [
            103.71794681100005,
            1.4309756530000755
          ],
          [
            103.73975670700003,
            1.4281273460000534
          ],
          [
            103.76221764400003,
            1.4309756530000755
          ],
          [
            103.79004967500003,
            1.4442813170000477
          ],
          [
            103.80494225400008,
            1.4486351580000587
          ],
          [
            103.83155358200003,
            1.447088934000078
          ],
          [
            103.85718834700003,
            1.4387067730000922
          ],
          [
            103.93246504000007,
            1.4011091170000896
          ],
          [
            103.96078535200007,
            1.3910993510000935
          ],
          [
            103.98568769600007,
            1.385443427000041
          ],
          [
            103.99952233200003,
            1.3803164730000503
          ],
          [
            104.00342858200003,
            1.374172268000052
          ],
          [
            103.99187259200005,
            1.3549258480000503
          ],
          [
            103.97486412900008,
            1.3344587260000935
          ],
          [
            103.95435631600003,
            1.318101304000038
          ]
        ]
      ],
      [
        [
          [
            104.26368248800003,
            1.5721703150000508
          ],
          [
            104.28402754000007,
            1.5174828150000508
          ],
          [
            104.29371178500003,
            1.471584377000056
          ],
          [
            104.29468834700003,
            1.4465192730000922
          ],
          [
            104.28785241000003,
            1.4355329450000909
          ],
          [
            104.27955162900008,
            1.426459052000041
          ],
          [
            104.28239993600005,
            1.382635809000078
          ],
          [
            104.27735436300003,
            1.3673363300000574
          ],
          [
            104.23959394600007,
            1.3673363300000574
          ],
          [
            104.23462975400008,
            1.3639997420000896
          ],
          [
            104.22413170700003,
            1.3495140650000508
          ],
          [
            104.21924889400003,
            1.3461774760000935
          ],
          [
            104.17408287900008,
            1.3482119810000768
          ],
          [
            104.15447024800005,
            1.3522809920000896
          ],
          [
            104.11402428500003,
            1.3684756530000755
          ],
          [
            104.10621178500003,
            1.375189520000049
          ],
          [
            104.10523522200003,
            1.38540273600006
          ],
          [
            104.10596764400003,
            1.404486395000049
          ],
          [
            104.10059655000003,
            1.418850002000056
          ],
          [
            104.08863366000003,
            1.429429429000038
          ],
          [
            104.07488040500004,
            1.4387067730000922
          ],
          [
            104.06495201900003,
            1.4486351580000587
          ],
          [
            104.05941816500007,
            1.4853376320000393
          ],
          [
            104.08627363400007,
            1.5028750670000477
          ],
          [
            104.12322024800005,
            1.5175235050000424
          ],
          [
            104.14763431100005,
            1.5453962260000935
          ],
          [
            104.12891686300003,
            1.549709377000056
          ],
          [
            104.11117597700007,
            1.5450707050000574
          ],
          [
            104.09449303500003,
            1.5352237000000741
          ],
          [
            104.06080162900008,
            1.5100772160000702
          ],
          [
            104.05339603000004,
            1.506293036000045
          ],
          [
            104.04981530000003,
            1.5130882830000587
          ],
          [
            104.04395592500003,
            1.5311953800000424
          ],
          [
            104.01221764400003,
            1.5968692080000437
          ],
          [
            103.98853600400008,
            1.6323916690000715
          ],
          [
            103.96599368600005,
            1.6478539080000587
          ],
          [
            103.96021569100003,
            1.6358096370000794
          ],
          [
            103.97038821700005,
            1.6086286480000922
          ],
          [
            104.00831139400003,
            1.5487328150000508
          ],
          [
            104.00863691500007,
            1.5348574890000464
          ],
          [
            104.00342858200003,
            1.5069033870000794
          ],
          [
            104.00570722700007,
            1.4938418640000464
          ],
          [
            104.01002037900008,
            1.4794782570000393
          ],
          [
            104.01246178500003,
            1.4642601580000587
          ],
          [
            104.00977623800003,
            1.4486351580000587
          ],
          [
            103.97445722700007,
            1.4198265650000508
          ],
          [
            103.92652428500003,
            1.4317080750000741
          ],
          [
            103.83969160200007,
            1.4765485700000909
          ],
          [
            103.81430097700007,
            1.4745140650000508
          ],
          [
            103.77409915500004,
            1.4536807310000768
          ],
          [
            103.75310306100005,
            1.4486351580000587
          ],
          [
            103.71265709700003,
            1.4520938170000477
          ],
          [
            103.69760175900007,
            1.4506289730000503
          ],
          [
            103.68140709700003,
            1.4417992210000534
          ],
          [
            103.63005618600005,
            1.3774274760000935
          ],
          [
            103.60010826900003,
            1.3534610050000424
          ],
          [
            103.56470787900008,
            1.3598493510000935
          ],
          [
            103.56275475400008,
            1.364406643000052
          ],
          [
            103.55551191500007,
            1.374741929000038
          ],
          [
            103.54786217500003,
            1.3820661480000922
          ],
          [
            103.54420006600003,
            1.3771833350000406
          ],
          [
            103.54525800900007,
            1.3659528670000896
          ],
          [
            103.55005944100003,
            1.3510602890000882
          ],
          [
            103.55103600400008,
            1.3428408870000794
          ],
          [
            103.54851321700005,
            1.3316917990000547
          ],
          [
            103.53052819100003,
            1.3052432310000768
          ],
          [
            103.51636803500003,
            1.2704531920000477
          ],
          [
            103.50407962300005,
            1.289943752000056
          ],
          [
            103.46900475400008,
            1.3199730490000547
          ],
          [
            103.45484459700003,
            1.3394229190000715
          ],
          [
            103.44629967500003,
            1.3593203800000424
          ],
          [
            103.41391035200007,
            1.4678408870000794
          ],
          [
            103.39999999999999,
            1.4967597776511612
          ],
          [
            103.39999999999999,
            1.67
          ],
          [
            104.2329933711042,
            1.67
          ],
          [
            104.23536217500003,
            1.6643740910000702
          ],
          [
            104.24724368600005,
            1.6505394550000574
          ],
          [
            104.25521894600007,
            1.6377627620000794
          ],
          [
            104.24984785200007,
            1.6273460960000534
          ],
          [
            104.25652103000004,
            1.6138369810000768
          ],
          [
            104.26368248800003,
            1.5721703150000508
          ]
        ]
      ],
      [
        [
          [
            104.3673569942877,
            0.83
          ],
          [
            104.36004814581896,
            0.83
          ],
          [
            104.36085045700003,
            0.8395042990000547
          ],
          [
            104.36133873800003,
            0.8487816430000521
          ],
          [
            104.36565188900005,
            0.8487816430000521
          ],
          [
            104.36622155000003,
            0.8381208350000406
          ],
          [
            104.36736087300005,
            0.8300235050000424
          ],
          [
            104.3673569942877,
            0.83
          ]
        ]
      ],
      [
        [
          [
            104.45476321700005,
            0.8625348980000922
          ],
          [
            104.44271894600007,
            0.8679059920000896
          ],
          [
            104.43848717500003,
            0.8698184270000411
          ],
          [
            104.42920983200003,
            0.8668480490000547
          ],
          [
            104.42448978000004,
            0.8723005230000922
          ],
          [
            104.42888431100005,
            0.8789737000000741
          ],
          [
            104.43913821700005,
            0.8829613300000574
          ],
          [
            104.44996178500003,
            0.8847923850000825
          ],
          [
            104.45687910200007,
            0.8858096370000794
          ],
          [
            104.46566816500007,
            0.8825951190000865
          ],
          [
            104.46924889400003,
            0.8798281920000477
          ],
          [
            104.47,
            0.8794526390222529
          ],
          [
            104.47,
            0.8645430289193746
          ],
          [
            104.46778405000003,
            0.861761786000045
          ],
          [
            104.46395918100006,
            0.8574079450000909
          ],
          [
            104.45476321700005,
            0.8625348980000922
          ]
        ]
      ],
      [
        [
          [
            104.25022139206574,
            0.83
          ],
          [
            104.15906071495523,
            0.83
          ],
          [
            104.15601647200003,
            0.8463809270000411
          ],
          [
            104.14763431100005,
            0.8589541690000715
          ],
          [
            104.13412519600007,
            0.8672549500000741
          ],
          [
            104.10718834700003,
            0.8729922550000424
          ],
          [
            104.09229576900003,
            0.8800723330000437
          ],
          [
            104.09937584700003,
            0.8947614600000406
          ],
          [
            104.09400475400008,
            0.9330915390000882
          ],
          [
            104.09913170700003,
            0.9489199890000464
          ],
          [
            104.11255944100003,
            0.9525820980000503
          ],
          [
            104.12769616000003,
            0.9425316430000521
          ],
          [
            104.15748131600003,
            0.91079336100006
          ],
          [
            104.16293379000007,
            0.9019229190000715
          ],
          [
            104.16635175900007,
            0.8917910830000437
          ],
          [
            104.17212975400008,
            0.8834903020000411
          ],
          [
            104.18482506600003,
            0.8800723330000437
          ],
          [
            104.22608483200003,
            0.8800723330000437
          ],
          [
            104.24146569100003,
            0.8770205750000741
          ],
          [
            104.25782311300003,
            0.8685977230000503
          ],
          [
            104.26628665500004,
            0.8558617210000534
          ],
          [
            104.25749759200005,
            0.8396670590000781
          ],
          [
            104.25025475400008,
            0.8300235050000424
          ],
          [
            104.25022139206574,
            0.83
          ]
        ]
      ],
      [
        [
          [
            104.04761803500003,
            0.8935000670000477
          ],
          [
            104.03923587300005,
            0.8897565780000605
          ],
          [
            104.03834069100003,
            0.8897565780000605
          ],
          [
            104.03866621200007,
            0.8915876320000393
          ],
          [
            104.03695722700007,
            0.8987490910000702
          ],
          [
            104.03874759200005,
            0.9018008480000503
          ],
          [
            104.04411868600005,
            0.9042829450000909
          ],
          [
            104.04656009200005,
            0.9138858090000781
          ],
          [
            104.05168704500005,
            0.9184837910000851
          ],
          [
            104.05591881600003,
            0.9191755230000922
          ],
          [
            104.05844160200007,
            0.9178327490000697
          ],
          [
            104.05551191500007,
            0.9085147160000702
          ],
          [
            104.05298912900008,
            0.9030622420000896
          ],
          [
            104.05079186300003,
            0.8960228540000799
          ],
          [
            104.04761803500003,
            0.8935000670000477
          ]
        ]
      ],
      [
        [
          [
            104.46949303500003,
            0.9081078150000508
          ],
          [
            104.44922936300003,
            0.9142113300000574
          ],
          [
            104.44922936300003,
            0.921616929000038
          ],
          [
            104.47,
            0.9207427444648363
          ],
          [
            104.47,
            0.907580571380149
          ],
          [
            104.46949303500003,
            0.9081078150000508
          ]
        ]
      ],
      [
        [
          [
            104.05494225400008,
            0.9288190780000605
          ],
          [
            104.05071048300005,
            0.9288597680000521
          ],
          [
            104.04794355600006,
            0.932074286000045
          ],
          [
            104.05111738400007,
            0.9658470720000878
          ],
          [
            104.05616295700003,
            0.9735375020000561
          ],
          [
            104.05933678500003,
            0.9716250670000477
          ],
          [
            104.06096438900005,
            0.9677595070000393
          ],
          [
            104.07113691500007,
            0.9599876970000878
          ],
          [
            104.07878665500004,
            0.9531924500000741
          ],
          [
            104.08057701900003,
            0.9425316430000521
          ],
          [
            104.07463626400005,
            0.9228783220000878
          ],
          [
            104.06364993600005,
            0.9184837910000851
          ],
          [
            104.05795332100007,
            0.9272321640000882
          ],
          [
            104.05494225400008,
            0.9288190780000605
          ]
        ]
      ],
      [
        [
          [
            104.17188561300003,
            0.9598249370000644
          ],
          [
            104.19629967500003,
            0.9486351580000587
          ],
          [
            104.19979902400007,
            0.9455427100000406
          ],
          [
            104.19629967500003,
            0.9428978540000799
          ],
          [
            104.19076582100007,
            0.9433454450000909
          ],
          [
            104.18734785200007,
            0.9413923200000909
          ],
          [
            104.18336022200003,
            0.9405785180000521
          ],
          [
            104.17872155000003,
            0.9405785180000521
          ],
          [
            104.17465254000007,
            0.9402529970000728
          ],
          [
            104.16692142000005,
            0.9364688170000477
          ],
          [
            104.16317793100006,
            0.9324404970000728
          ],
          [
            104.16000410200007,
            0.9315046240000697
          ],
          [
            104.15357506600003,
            0.9331322290000799
          ],
          [
            104.14934329500005,
            0.9409854190000715
          ],
          [
            104.14942467500003,
            0.9444440780000605
          ],
          [
            104.14698326900003,
            0.9481061870000644
          ],
          [
            104.14649498800003,
            0.9536807310000768
          ],
          [
            104.14983157600005,
            0.9565697290000799
          ],
          [
            104.14633222700007,
            0.9626732440000865
          ],
          [
            104.14755293100006,
            0.9663760440000715
          ],
          [
            104.14511152400007,
            0.9719912780000755
          ],
          [
            104.15088951900003,
            0.9699160830000437
          ],
          [
            104.16317793100006,
            0.9682477890000882
          ],
          [
            104.17221113400007,
            0.9701195330000587
          ],
          [
            104.17188561300003,
            0.9598249370000644
          ]
        ]
      ],
      [
        [
          [
            104.46273847700007,
            0.9830996770000411
          ],
          [
            104.45801842500003,
            0.9937197940000715
          ],
          [
            104.45736738400007,
            1.0019391950000909
          ],
          [
            104.46273847700007,
            1.0172793640000464
          ],
          [
            104.46827233200003,
            1.0180524760000935
          ],
          [
            104.47,
            1.0191569495413575
          ],
          [
            104.47,
            0.9403527446324004
          ],
          [
            104.44922936300003,
            0.9414737000000741
          ],
          [
            104.42896569100003,
            0.9489199890000464
          ],
          [
            104.42107181100005,
            0.9566104190000715
          ],
          [
            104.42123457100007,
            0.9688174500000741
          ],
          [
            104.42758222700007,
            0.974798895000049
          ],
          [
            104.46273847700007,
            0.9830996770000411
          ]
        ]
      ],
      [
        [
          [
            103.94629967500003,
            0.9356143250000741
          ],
          [
            103.93279056100005,
            0.934027411000045
          ],
          [
            103.92164147200003,
            0.9346377620000794
          ],
          [
            103.91138756600003,
            0.937933661000045
          ],
          [
            103.85661868600005,
            0.9684105490000547
          ],
          [
            103.84644616000003,
            0.9774844420000477
          ],
          [
            103.83969160200007,
            0.9899356140000464
          ],
          [
            103.83887780000003,
            1.0029971370000794
          ],
          [
            103.84473717500003,
            1.0126813820000393
          ],
          [
            103.85661868600005,
            1.0143903670000896
          ],
          [
            103.87378991000003,
            1.0036074890000464
          ],
          [
            103.87370853000004,
            1.011908270000049
          ],
          [
            103.88005618600005,
            1.0314802100000406
          ],
          [
            103.89283287900008,
            1.014349677000041
          ],
          [
            103.90902754000007,
            1.0059268250000741
          ],
          [
            103.94214928500003,
            0.9960798200000909
          ],
          [
            103.95199629000007,
            0.9879417990000547
          ],
          [
            103.96143639400003,
            0.974798895000049
          ],
          [
            103.96729576900003,
            0.9601097680000521
          ],
          [
            103.96664472700007,
            0.9472110050000424
          ],
          [
            103.95883222700007,
            0.9397647160000702
          ],
          [
            103.94629967500003,
            0.9356143250000741
          ]
        ]
      ],
      [
        [
          [
            104.24545332100007,
            0.9726016300000424
          ],
          [
            104.24008222700007,
            0.9773623720000728
          ],
          [
            104.23349043100006,
            0.9776878930000521
          ],
          [
            104.23471113400007,
            0.984808661000045
          ],
          [
            104.23682701900003,
            0.9897321640000882
          ],
          [
            104.25302168100006,
            0.9956729190000715
          ],
          [
            104.26075280000003,
            0.991929429000038
          ],
          [
            104.26612389400003,
            0.9848900410000851
          ],
          [
            104.26547285200007,
            0.9777692730000922
          ],
          [
            104.26156660200007,
            0.9726016300000424
          ],
          [
            104.25163821700005,
            0.9744733740000697
          ],
          [
            104.24545332100007,
            0.9726016300000424
          ]
        ]
      ],
      [
        [
          [
            104.17684980600006,
            1.0217959660000702
          ],
          [
            104.18116295700003,
            1.0287132830000587
          ],
          [
            104.18612714900007,
            1.0248884140000882
          ],
          [
            104.18921959700003,
            1.016506252000056
          ],
          [
            104.18751061300003,
            1.0121931010000935
          ],
          [
            104.18075605600006,
            1.0048688820000393
          ],
          [
            104.18051191500007,
            0.9993757180000671
          ],
          [
            104.17001386800007,
            0.9907087260000935
          ],
          [
            104.16708418100006,
            0.9933128930000521
          ],
          [
            104.16244550900007,
            0.991929429000038
          ],
          [
            104.15691165500004,
            0.9965681010000935
          ],
          [
            104.15691165500004,
            1.0117048200000909
          ],
          [
            104.16244550900007,
            1.0170352230000503
          ],
          [
            104.17367597700007,
            1.0180524760000935
          ],
          [
            104.17684980600006,
            1.0217959660000702
          ]
        ]
      ],
      [
        [
          [
            104.18303470100005,
            1.0622012390000464
          ],
          [
            104.19190514400003,
            1.0491804060000618
          ],
          [
            104.19044030000003,
            1.0405134140000882
          ],
          [
            104.18572024800005,
            1.0358747420000896
          ],
          [
            104.17823326900003,
            1.029486395000049
          ],
          [
            104.17245527400007,
            1.0230166690000715
          ],
          [
            104.16627037900008,
            1.029120184000078
          ],
          [
            104.16171308700007,
            1.0434431010000935
          ],
          [
            104.16545657600005,
            1.0554059920000896
          ],
          [
            104.16537519600007,
            1.060980536000045
          ],
          [
            104.17774498800003,
            1.0665550800000574
          ],
          [
            104.18612714900007,
            1.0677757830000587
          ],
          [
            104.18303470100005,
            1.0622012390000464
          ]
        ]
      ],
      [
        [
          [
            104.10417728000004,
            1.057766018000052
          ],
          [
            104.10417728000004,
            1.051662502000056
          ],
          [
            104.10670006600003,
            1.0454776060000768
          ],
          [
            104.11280358200003,
            1.03774648600006
          ],
          [
            104.10450280000003,
            1.0332705750000741
          ],
          [
            104.10059655000003,
            1.0270449890000464
          ],
          [
            104.09782962300005,
            1.0191104190000715
          ],
          [
            104.09229576900003,
            1.0098330750000741
          ],
          [
            104.09156334700003,
            1.0055606140000464
          ],
          [
            104.09327233200003,
            0.9936384140000882
          ],
          [
            104.09229576900003,
            0.9899356140000464
          ],
          [
            104.08790123800003,
            0.9889590520000411
          ],
          [
            104.07642662900008,
            0.9904645850000406
          ],
          [
            104.07178795700003,
            0.9899356140000464
          ],
          [
            104.04916425900007,
            0.9841983090000781
          ],
          [
            104.03174889400003,
            0.9894473330000437
          ],
          [
            103.99610436300003,
            1.0098330750000741
          ],
          [
            103.98796634200005,
            1.0104841170000896
          ],
          [
            103.96664472700007,
            1.0081240910000702
          ],
          [
            103.95582116000003,
            1.0098330750000741
          ],
          [
            103.95053144600007,
            1.014105536000045
          ],
          [
            103.91822350400008,
            1.0513369810000768
          ],
          [
            103.90674889400003,
            1.0716820330000587
          ],
          [
            103.90259850400008,
            1.090521552000041
          ],
          [
            103.91407311300003,
            1.099798895000049
          ],
          [
            103.92383873800003,
            1.096136786000045
          ],
          [
            103.93816165500004,
            1.0795759140000882
          ],
          [
            103.94898522200003,
            1.0785993510000935
          ],
          [
            103.95622806100005,
            1.084865627000056
          ],
          [
            103.95533287900008,
            1.093573309000078
          ],
          [
            103.95134524800005,
            1.1035830750000741
          ],
          [
            103.94654381600003,
            1.1247012390000464
          ],
          [
            103.94320722700007,
            1.1309268250000741
          ],
          [
            103.94450931100005,
            1.1352399760000935
          ],
          [
            103.95582116000003,
            1.1407738300000574
          ],
          [
            103.96705162900008,
            1.1416690120000794
          ],
          [
            103.98764082100007,
            1.1342227230000503
          ],
          [
            103.99610436300003,
            1.1332868510000935
          ],
          [
            104.01107832100007,
            1.144720770000049
          ],
          [
            104.01921634200005,
            1.178859768000052
          ],
          [
            104.03093509200005,
            1.1878929710000534
          ],
          [
            104.04135175900007,
            1.181382554000038
          ],
          [
            104.07081139400003,
            1.1459414730000503
          ],
          [
            104.08545983200003,
            1.1332868510000935
          ],
          [
            104.09164472700007,
            1.1454938820000393
          ],
          [
            104.09156334700003,
            1.1584333350000406
          ],
          [
            104.08659915500004,
            1.1709658870000794
          ],
          [
            104.07862389400003,
            1.1817080750000741
          ],
          [
            104.09058678500003,
            1.1878115910000702
          ],
          [
            104.10320071700005,
            1.1895205750000741
          ],
          [
            104.11573326900003,
            1.187241929000038
          ],
          [
            104.12769616000003,
            1.1813011740000547
          ],
          [
            104.13819420700003,
            1.1720238300000574
          ],
          [
            104.14275149800005,
            1.1664899760000935
          ],
          [
            104.14633222700007,
            1.1604678410000702
          ],
          [
            104.15235436300003,
            1.1400414080000587
          ],
          [
            104.15170332100007,
            1.1194522160000702
          ],
          [
            104.13111412900008,
            1.0487735050000424
          ],
          [
            104.12322024800005,
            1.0496279970000728
          ],
          [
            104.10596764400003,
            1.0650088560000768
          ],
          [
            104.10417728000004,
            1.057766018000052
          ]
        ]
      ],
      [
        [
          [
            104.38624108200003,
            1.0298526060000768
          ],
          [
            104.37142988400007,
            1.0256208350000406
          ],
          [
            104.34945722700007,
            1.02407461100006
          ],
          [
            104.34058678500003,
            1.0209007830000587
          ],
          [
            104.32715905000003,
            1.0067813170000477
          ],
          [
            104.31544030000003,
            1.0036074890000464
          ],
          [
            104.28150475400008,
            1.002142645000049
          ],
          [
            104.27100670700003,
            1.0036074890000464
          ],
          [
            104.24561608200003,
            1.0172793640000464
          ],
          [
            104.24138431100005,
            1.0355492210000534
          ],
          [
            104.24244225400008,
            1.0558942730000922
          ],
          [
            104.23275800900007,
            1.0755882830000587
          ],
          [
            104.23194420700003,
            1.0933291690000715
          ],
          [
            104.25635826900003,
            1.1088727890000882
          ],
          [
            104.30518639400003,
            1.1264509140000882
          ],
          [
            104.31657962300005,
            1.1328799500000741
          ],
          [
            104.32227623800003,
            1.1386579450000909
          ],
          [
            104.33253014400003,
            1.1544457050000574
          ],
          [
            104.33676191500007,
            1.1650251320000393
          ],
          [
            104.33725019600007,
            1.1737328150000508
          ],
          [
            104.34131920700003,
            1.1795921900000508
          ],
          [
            104.35629316500007,
            1.1817080750000741
          ],
          [
            104.37842858200003,
            1.1764997420000896
          ],
          [
            104.38933353000004,
            1.1786563170000477
          ],
          [
            104.39389082100007,
            1.191595770000049
          ],
          [
            104.39966881600003,
            1.2026227890000882
          ],
          [
            104.41260826900003,
            1.2006289730000503
          ],
          [
            104.43555748800003,
            1.1878929710000534
          ],
          [
            104.47,
            1.1797318935557528
          ],
          [
            104.47,
            1.0395699702693988
          ],
          [
            104.46778405000003,
            1.0409203150000508
          ],
          [
            104.45777428500003,
            1.0549990910000702
          ],
          [
            104.45248457100007,
            1.0581729190000715
          ],
          [
            104.43873131600003,
            1.0568708350000406
          ],
          [
            104.42994225400008,
            1.053615627000056
          ],
          [
            104.38624108200003,
            1.0298526060000768
          ]
        ]
      ],
      [
        [
          [
            103.88762454500005,
            1.1531029320000812
          ],
          [
            103.88957767000005,
            1.1579043640000464
          ],
          [
            103.89210045700003,
            1.143906968000067
          ],
          [
            103.88835696700005,
            1.1426455750000741
          ],
          [
            103.87842858200003,
            1.1452904320000812
          ],
          [
            103.88266035200007,
            1.1529401710000684
          ],
          [
            103.88762454500005,
            1.1531029320000812
          ]
        ]
      ]
    ]
  }
}
